NORAD_CAT_ID,OBJECT_NAME,OBJECT_TYPE,EPOCH,MEAN_MOTION,ECCENTRICITY,INCLINATION,RA_OF_ASC_NODE,ARG_OF_PERICENTER,MEAN_ANOMALY,BSTAR,MEAN_MOTION_DOT,MEAN_MOTION_DDOT,TLE_LINE0,TLE_LINE1,TLE_LINE2,SEMIMAJOR_AXIS,PERIOD,APOGEE,PERIGEE,DECAYED
53637.0,STARLINK-4396,PAYLOAD,2023-11-23 13:18:52,15.08844776,0.0001772,53.2191,22.3508,95.73,264.3895,8.6809e-05,1.094e-05,0.0,0 STARLINK-4396,1 53637U 22104BB  23327.55477223  .00001094  00000-0  86809-4 0  9994,2 53637  53.2191  22.3508 0001772  95.7300 264.3895 15.08844776 69842,6917.866,95.437,540.957,538.505,0.0
53637.0,STARLINK-4396,PAYLOAD,2023-11-24 03:37:21,15.08828727,0.0001677,53.2197,19.6674,115.4157,244.7009,-0.00025501,-4.343e-05,0.0,0 STARLINK-4396,1 53637U 22104BB  23328.15094138 -.00004343  00000-0 -25501-3 0  9994,2 53637  53.2197  19.6674 0001677 115.4157 244.7009 15.08828727 68919,6917.915,95.438,540.94,538.62,0.0
53637.0,STARLINK-4396,PAYLOAD,2023-11-24 13:09:40,15.08836608,0.0001843,53.2191,17.8883,107.9586,252.1607,-6.4281e-05,-1.311e-05,0.0,0 STARLINK-4396,1 53637U 22104BB  23328.54838063 -.00001311  00000-0 -64281-4 0  9991,2 53637  53.2191  17.8883 0001843 107.9586 252.1607 15.08836608 69995,6917.891,95.438,541.031,538.481,0.0
53637.0,STARLINK-4396,PAYLOAD,2023-11-25 09:49:40,15.08858264,0.000179,53.2185,14.025,98.3273,261.7922,0.00076759,0.00011955,0.0,0 STARLINK-4396,1 53637U 22104BB  23329.40950219  .00011955  00000-0  76759-3 0  9990,2 53637  53.2185  14.0250 0001790  98.3273 261.7922 15.08858264 70127,6917.825,95.436,540.928,538.451,0.0
53637.0,STARLINK-4396,PAYLOAD,2023-11-26 08:05:04,15.08859142,0.0001889,53.218,9.8652,98.4211,261.6996,0.00024035,3.541e-05,0.0,0 STARLINK-4396,1 53637U 22104BB  23330.33685285  .00003541  00000-0  24035-3 0  9994,2 53637  53.2180   9.8652 0001889  98.4211 261.6996 15.08859142 69249,6917.822,95.436,540.994,538.38,0.0
53637.0,STARLINK-4396,PAYLOAD,2023-11-27 03:09:43,15.08793327,0.0001137,53.2194,6.2889,352.2233,7.8741,-0.0011675,-0.00018796,0.0,0 STARLINK-4396,1 53637U 22104BB  23331.13174796 -.00018796  00000-0 -11675-2 0  9998,2 53637  53.2194   6.2889 0001137 352.2233   7.8741 15.08793327 69361,6918.023,95.441,540.675,539.101,0.0
53637.0,STARLINK-4396,PAYLOAD,2023-11-27 07:55:53,15.08803713,0.0001823,53.218,5.405,81.7537,278.3661,-0.00071955,-0.0001171,0.0,0 STARLINK-4396,1 53637U 22104BB  23331.33047608 -.00011710  00000-0 -71955-3 0  9998,2 53637  53.2180   5.4050 0001823  81.7537 278.3661 15.08803713 69390,6917.991,95.44,541.117,538.595,0.0
53637.0,STARLINK-4396,PAYLOAD,2023-11-28 01:25:08,15.08817793,0.000281,53.2167,2.1236,136.7107,223.4106,4.0175e-05,3.51e-06,0.0,0 STARLINK-4396,1 53637U 22104BB  23332.05912073  .00000351  00000-0  40175-4 0  9993,2 53637  53.2167   2.1236 0002810 136.7107 223.4106 15.08817793 69507,6917.948,95.439,541.757,537.869,0.0
53637.0,STARLINK-4396,PAYLOAD,2023-11-28 07:46:39,15.08843999,0.0002207,53.2177,0.9427,111.6619,248.4608,0.0004497,6.877e-05,0.0,0 STARLINK-4396,1 53637U 22104BB  23332.32407294  .00006877  00000-0  44970-3 0  9992,2 53637  53.2177   0.9427 0002207 111.6619 248.4608 15.08843999 69541,6917.868,95.437,541.26,538.206,0.0
53637.0,STARLINK-4396,PAYLOAD,2023-11-28 12:32:48,15.08849136,0.0002966,53.2178,0.0486,127.4525,232.6738,0.00048597,7.457e-05,0.0,0 STARLINK-4396,1 53637U 22104BB  23332.52278928  .00007457  00000-0  48597-3 0  9998,2 53637  53.2178   0.0486 0002966 127.4525 232.6738 15.08849136 70596,6917.852,95.437,541.769,537.666,0.0
53637.0,STARLINK-4396,PAYLOAD,2023-11-28 23:40:31,15.08842556,0.0001946,53.217,357.9599,124.4779,235.6397,0.00058516,9.038e-05,0.0,0 STARLINK-4396,1 53637U 22104BB  23332.98647353  .00009038  00000-0  58516-3 0  9999,2 53637  53.2170 357.9599 0001946 124.4779 235.6397 15.08842556 69649,6917.873,95.437,541.084,538.391,0.0
53637.0,STARLINK-4396,PAYLOAD,2023-11-29 09:12:50,15.08851388,0.0001747,53.2166,356.1808,82.0555,278.0635,0.0005509,8.493e-05,0.0,0 STARLINK-4396,1 53637U 22104BB  23333.38391357  .00008493  00000-0  55090-3 0  9992,2 53637  53.2166 356.1808 0001747  82.0555 278.0635 15.08851388 70728,6917.846,95.437,540.919,538.502,0.0
53637.0,STARLINK-4396,PAYLOAD,2023-11-30 01:06:41,15.08853409,0.0002507,53.2183,353.2168,60.8591,299.2652,0.00011272,1.507e-05,0.0,0 STARLINK-4396,1 53637U 22104BB  23334.04630993  .00001507  00000-0  11272-3 0  9991,2 53637  53.2183 353.2168 0002507  60.8591 299.2652 15.08853409 69800,6917.839,95.437,541.439,537.97,0.0
53637.0,STARLINK-4396,PAYLOAD,2023-11-30 09:03:37,15.08847355,0.0002178,53.2175,351.7233,79.9993,280.1245,0.00010421,1.371e-05,0.0,0 STARLINK-4396,1 53637U 22104BB  23334.37751231  .00001371  00000-0  10421-3 0  9990,2 53637  53.2175 351.7233 0002178  79.9993 280.1245 15.08847355 69853,6917.858,95.437,541.23,538.216,0.0
53637.0,STARLINK-4396,PAYLOAD,2023-12-01 00:57:28,15.08839859,0.0002223,53.2173,348.7522,91.5858,268.5388,0.00013951,1.933e-05,0.0,0 STARLINK-4396,1 53637U 22104BB  23335.03991586  .00001933  00000-0  13951-3 0  9998,2 53637  53.2173 348.7522 0002223  91.5858 268.5388 15.08839859 69958,6917.881,95.438,541.284,538.208,0.0
53637.0,STARLINK-4396,PAYLOAD,2023-12-01 07:19:01,15.08843787,0.0002106,53.2184,347.561,76.2674,283.8552,7.8221e-05,9.57e-06,0.0,0 STARLINK-4396,1 53637U 22104BB  23335.30487496  .00000957  00000-0  78221-4 0  9995,2 53637  53.2184 347.5610 0002106  76.2674 283.8552 15.08843787 71019,6917.869,95.437,541.191,538.277,0.0
53637.0,STARLINK-4396,PAYLOAD,2023-12-02 00:48:15,15.08854047,0.0002047,53.2173,344.2877,97.5564,262.5661,0.00033674,5.077e-05,0.0,0 STARLINK-4396,1 53637U 22104BB  23336.03350770  .00005077  00000-0  33674-3 0  9990,2 53637  53.2173 344.2877 0002047  97.5564 262.5661 15.08854047 70109,6917.837,95.437,541.119,538.286,0.0
53637.0,STARLINK-4396,PAYLOAD,2023-12-02 07:09:46,15.08880706,0.000203,53.2182,343.1008,85.2551,274.8673,0.00084533,0.00013206,0.0,0 STARLINK-4396,1 53637U 22104BB  23336.29845672  .00013206  00000-0  84533-3 0  9991,2 53637  53.2182 343.1008 0002030  85.2551 274.8673 15.08880706 70149,6917.756,95.435,541.025,538.217,0.0
53637.0,STARLINK-4396,PAYLOAD,2023-12-03 03:49:49,15.08802566,0.000196,53.2168,339.2338,90.2338,269.8879,-0.00080463,-0.00013058,0.0,0 STARLINK-4396,1 53637U 22104BB  23337.15960318 -.00013058  00000-0 -80463-3 0  9997,2 53637  53.2168 339.2338 0001960  90.2338 269.8879 15.08802566 70279,6917.995,95.44,541.216,538.504,0.0
53637.0,STARLINK-4396,PAYLOAD,2023-12-03 07:00:36,15.08801322,0.0001982,53.217,338.639,84.991,275.1309,-0.00080235,-0.00013022,0.0,0 STARLINK-4396,1 53637U 22104BB  23337.29208401 -.00013022  00000-0 -80235-3 0  9998,2 53637  53.2170 338.6390 0001982  84.9910 275.1309 15.08801322 71316,6917.999,95.44,541.235,538.492,0.0
53637.0,STARLINK-4396,PAYLOAD,2023-12-04 03:40:37,15.08839589,0.0002102,53.2181,334.7747,82.0598,278.0633,0.0011002,0.00017265,0.0,0 STARLINK-4396,1 53637U 22104BB  23338.15321196  .00017265  00000-0  11002-2 0  9997,2 53637  53.2181 334.7747 0002102  82.0598 278.0633 15.08839589 70426,6917.882,95.438,541.201,538.293,0.0
53637.0,STARLINK-4396,PAYLOAD,2023-12-04 06:51:23,15.08844762,0.0002223,53.2178,334.1791,81.7785,278.3459,0.001388,0.00021874,0.0,0 STARLINK-4396,1 53637U 22104BB  23338.28569114  .00021874  00000-0  13880-2 0  9992,2 53637  53.2178 334.1791 0002223  81.7785 278.3459 15.08844762 71466,6917.866,95.437,541.269,538.193,0.0
53637.0,STARLINK-4396,PAYLOAD,2023-12-05 06:42:11,15.08795704,0.0001951,53.2176,329.719,83.1555,276.966,-0.0016125,-0.00025829,0.0,0 STARLINK-4396,1 53637U 22104BB  23339.27929727 -.00025829  00000-0 -16125-2 0  9993,2 53637  53.2176 329.7190 0001951  83.1555 276.9660 15.08795704 70597,6918.016,95.44,541.23,538.531,0.0
53637.0,STARLINK-4396,PAYLOAD,2023-12-06 03:22:11,15.08852866,0.0001952,53.2171,325.8523,76.4056,283.7153,0.0006791,0.0001054,0.0,0 STARLINK-4396,1 53637U 22104BB  23340.14041063  .00010540  00000-0  67910-3 0  9990,2 53637  53.2171 325.8523 0001952  76.4056 283.7153 15.08852866 70722,6917.841,95.437,541.056,538.356,0.0
53637.0,STARLINK-4396,PAYLOAD,2023-12-06 09:43:43,15.08861108,0.0002059,53.2172,324.6627,76.7548,283.3674,0.00043382,6.627e-05,0.0,0 STARLINK-4396,1 53637U 22104BB  23340.40536356  .00006627  00000-0  43382-3 0  9991,2 53637  53.2172 324.6627 0002059  76.7548 283.3674 15.08861108 71783,6917.816,95.436,541.105,538.256,0.0
53637.0,STARLINK-4396,PAYLOAD,2023-12-07 03:12:57,15.08851814,0.0001948,53.2177,321.3863,107.6192,252.5013,0.00027916,4.159e-05,0.0,0 STARLINK-4396,1 53637U 22104BB  23341.13400299  .00004159  00000-0  27916-3 0  9991,2 53637  53.2177 321.3863 0001948 107.6192 252.5013 15.08851814 70876,6917.844,95.437,541.057,538.362,0.0
53637.0,STARLINK-4396,PAYLOAD,2023-12-07 06:23:44,15.08851258,0.0001967,53.2178,320.79,74.0722,286.0487,0.00014266,1.984e-05,0.0,0 STARLINK-4396,1 53637U 22104BB  23341.26648176  .00001984  00000-0  14266-3 0  9990,2 53637  53.2178 320.7900 0001967  74.0722 286.0487 15.08851258 71914,6917.846,95.437,541.072,538.35,0.0
53637.0,STARLINK-4396,PAYLOAD,2023-12-08 03:03:44,15.08848285,0.0002226,53.2185,316.9246,64.367,295.7552,-3.9389e-05,-9.15e-06,0.0,0 STARLINK-4396,1 53637U 22104BB  23342.12760289 -.00000915  00000-0 -39389-4 0  9995,2 53637  53.2185 316.9246 0002226  64.3670 295.7552 15.08848285 71023,6917.855,95.437,541.26,538.18,0.0
53637.0,STARLINK-4396,PAYLOAD,2023-12-08 07:49:54,15.08849051,0.0002326,53.2191,316.033,62.2953,297.8275,1.869e-05,9e-08,0.0,0 STARLINK-4396,1 53637U 22104BB  23342.32632192  .00000009  00000-0  18690-4 0  9992,2 53637  53.2191 316.0330 0002326  62.2953 297.8275 15.08849051 72070,6917.853,95.437,541.327,538.109,0.0
53637.0,STARLINK-4396,PAYLOAD,2023-12-09 04:29:54,15.08848439,0.000227,53.2198,312.168,64.548,295.5747,6.0142e-05,6.69e-06,0.0,0 STARLINK-4396,1 53637U 22104BB  23343.18744033  .00000669  00000-0  60142-4 0  9996,2 53637  53.2198 312.1680 0002270  64.5480 295.5747 15.08848439 71189,6917.855,95.437,541.29,538.149,0.0
